{"type": "FeatureCollection", "features": [ {"type": "Feature", "properties": {"norad_id": 46979, "name": "IRIDIUM 33 DEB", "group": "iridium-33-debris", "lat": -76.34670604441847, "lon": 33.92300294673706, "alt_km": 596.6208839424444, "timestamp": "2025-12-11T07:02:24.116276+00:00", "meta": {"OBJECT_NAME": "IRIDIUM 33 DEB", "OBJECT_ID": "1997-051ACM", "EPOCH": "2025-12-08T11:38:51.411264", "MEAN_MOTION": 14.88966671, "ECCENTRICITY": 0.00280118, "INCLINATION": 86.3345, "RA_OF_ASC_NODE": 50.5282, "ARG_OF_PERICENTER": 237.8713, "MEAN_ANOMALY": 121.9794, "EPHEMERIS_TYPE": 0, "CLASSIFICATION_TYPE": "U", "NORAD_CAT_ID": 46979, "ELEMENT_SET_NO": 999, "REV_AT_EPOCH": 35365, "BSTAR": 0.0048738532, "MEAN_MOTION_DOT": 0.00046401, "MEAN_MOTION_DDOT": 0}, "tle": {"line1": "1 46979U 97051ACM 25342.48531726  .00046401  00000+0  48739-2 0  9996", "line2": "2 46979  86.3345  50.5282 0028011 237.8713 121.9794 14.88966671353652"}}, "geometry": {"type": "Point", "coordinates": [33.92300294673706, -76.34670604441847]}}]}